{
  "type": "FeatureCollection",
  "features": [
    {
      "type": "Feature",
      "properties": {
        "norad_id": 38833,
        "name": "GPS BIIF-3  (PRN 24)",
        "group": "gps-ops",
        "lat": -3.2685550018573846,
        "lon": 149.009249017265,
        "alt_km": 20001.142092671147,
        "timestamp": "2025-12-07T20:38:14.322870+00:00",
        "meta_object_name": "GPS BIIF-3  (PRN 24)",
        "meta_object_id": "2012-053A",
        "meta_epoch": "2025-12-06T20:50:20.740704",
        "meta_mean_motion": 2.0056489,
        "meta_eccentricity": 0.01756175,
        "meta_inclination": 53.5566,
        "meta_ra_of_asc_node": 151.4791,
        "meta_arg_of_pericenter": 63.9122,
        "meta_mean_anomaly": 297.8848,
        "meta_ephemeris_type": 0,
        "meta_classification_type": "U",
        "meta_norad_cat_id": 38833,
        "meta_element_set_no": 999,
        "meta_rev_at_epoch": 9558,
        "meta_bstar": 0,
        "meta_mean_motion_dot": 5.4e-07,
        "meta_mean_motion_ddot": 0,
        "tle_line1": "1 38833U 12053A   25340.86829561  .00000054  00000+0  00000+0 0  9992",
        "tle_line2": "2 38833  53.5566 151.4791 0175617  63.9122 297.8848  2.00564890 95582"
      },
      "geometry": {
        "type": "Point",
        "coordinates": [
          149.009249017265,
          -3.2685550018573846
        ]
      }
    },
    {
      "type": "Feature",
      "properties": {
        "norad_id": 39166,
        "name": "GPS BIIF-4  (PRN 27)",
        "group": "gps-ops",
        "lat": 54.14770759740436,
        "lon": 18.028190824481563,
        "alt_km": 19929.048223003756,
        "timestamp": "2025-12-07T20:38:14.322880+00:00",
        "meta_object_name": "GPS BIIF-4  (PRN 27)",
        "meta_object_id": "2013-023A",
        "meta_epoch": "2025-12-07T05:32:23.727552",
        "meta_mean_motion": 2.00565061,
        "meta_eccentricity": 0.01375526,
        "meta_inclination": 54.6569,
        "meta_ra_of_asc_node": 276.7922,
        "meta_arg_of_pericenter": 48.5552,
        "meta_mean_anomaly": 312.629,
        "meta_ephemeris_type": 0,
        "meta_classification_type": "U",
        "meta_norad_cat_id": 39166,
        "meta_element_set_no": 999,
        "meta_rev_at_epoch": 9203,
        "meta_bstar": 0,
        "meta_mean_motion_dot": -3.4e-07,
        "meta_mean_motion_ddot": 0,
        "tle_line1": "1 39166U 13023A   25341.23083018 -.00000034  00000+0  00000+0 0  9990",
        "tle_line2": "2 39166  54.6569 276.7922 0137552  48.5552 312.6290  2.00565061 92031"
      },
      "geometry": {
        "type": "Point",
        "coordinates": [
          18.028190824481563,
          54.14770759740436
        ]
      }
    },
    {
      "type": "Feature",
      "properties": {
        "norad_id": 39533,
        "name": "GPS BIIF-5  (PRN 30)",
        "group": "gps-ops",
        "lat": 53.01999387592879,
        "lon": -101.13713259522785,
        "alt_km": 20307.383278246398,
        "timestamp": "2025-12-07T20:38:14.322892+00:00",
        "meta_object_name": "GPS BIIF-5  (PRN 30)",
        "meta_object_id": "2014-008A",
        "meta_epoch": "2025-12-06T17:26:15.806112",
        "meta_mean_motion": 2.00574018,
        "meta_eccentricity": 0.00790593,
        "meta_inclination": 53.6301,
        "meta_ra_of_asc_node": 157.1699,
        "meta_arg_of_pericenter": 226.4148,
        "meta_mean_anomaly": 132.9387,
        "meta_ephemeris_type": 0,
        "meta_classification_type": "U",
        "meta_norad_cat_id": 39533,
        "meta_element_set_no": 999,
        "meta_rev_at_epoch": 8582,
        "meta_bstar": 0,
        "meta_mean_motion_dot": 5.9e-07,
        "meta_mean_motion_ddot": 0,
        "tle_line1": "1 39533U 14008A   25340.72657183  .00000059  00000+0  00000+0 0  9991",
        "tle_line2": "2 39533  53.6301 157.1699 0079059 226.4148 132.9387  2.00574018 85821"
      },
      "geometry": {
        "type": "Point",
        "coordinates": [
          -101.13713259522785,
          53.01999387592879
        ]
      }
    },
    {
      "type": "Feature",
      "properties": {
        "norad_id": 39741,
        "name": "GPS BIIF-6  (PRN 06)",
        "group": "gps-ops",
        "lat": -53.12020394368845,
        "lon": -139.40973881456608,
        "alt_km": 20143.729470329996,
        "timestamp": "2025-12-07T20:38:14.322903+00:00",
        "meta_object_name": "GPS BIIF-6  (PRN 06)",
        "meta_object_id": "2014-026A",
        "meta_epoch": "2025-12-07T00:13:30.638496",
        "meta_mean_motion": 2.00561616,
        "meta_eccentricity": 0.00390271,
        "meta_inclination": 56.5858,
        "meta_ra_of_asc_node": 338.9993,
        "meta_arg_of_pericenter": 318.3547,
        "meta_mean_anomaly": 41.3608,
        "meta_ephemeris_type": 0,
        "meta_classification_type": "U",
        "meta_norad_cat_id": 39741,
        "meta_element_set_no": 999,
        "meta_rev_at_epoch": 8468,
        "meta_bstar": 0,
        "meta_mean_motion_dot": -8e-07,
        "meta_mean_motion_ddot": 0,
        "tle_line1": "1 39741U 14026A   25341.00938239 -.00000080  00000+0  00000+0 0  9993",
        "tle_line2": "2 39741  56.5858 338.9993 0039027 318.3547  41.3608  2.00561616 84684"
      },
      "geometry": {
        "type": "Point",
        "coordinates": [
          -139.40973881456608,
          -53.12020394368845
        ]
      }
    },
    {
      "type": "Feature",
      "properties": {
        "norad_id": 40105,
        "name": "GPS BIIF-7  (PRN 09)",
        "group": "gps-ops",
        "lat": -9.35224198803339,
        "lon": -77.34984842998045,
        "alt_km": 20155.163765503483,
        "timestamp": "2025-12-07T20:38:14.322914+00:00",
        "meta_object_name": "GPS BIIF-7  (PRN 09)",
        "meta_object_id": "2014-045A",
        "meta_epoch": "2025-12-05T14:26:16.975968",
        "meta_mean_motion": 2.00571979,
        "meta_eccentricity": 0.00328896,
        "meta_inclination": 55.2248,
        "meta_ra_of_asc_node": 96.1837,
        "meta_arg_of_pericenter": 119.6741,
        "meta_mean_anomaly": 240.6258,
        "meta_ephemeris_type": 0,
        "meta_classification_type": "U",
        "meta_norad_cat_id": 40105,
        "meta_element_set_no": 999,
        "meta_rev_at_epoch": 8219,
        "meta_bstar": 0,
        "meta_mean_motion_dot": -1.2e-07,
        "meta_mean_motion_ddot": 0,
        "tle_line1": "1 40105U 14045A   25339.60158537 -.00000012  00000+0  00000+0 0  9993",
        "tle_line2": "2 40105  55.2248  96.1837 0032889 119.6741 240.6258  2.00571979 82198"
      },
      "geometry": {
        "type": "Point",
        "coordinates": [
          -77.34984842998045,
          -9.35224198803339
        ]
      }
    },
    {
      "type": "Feature",
      "properties": {
        "norad_id": 40294,
        "name": "GPS BIIF-8  (PRN 03)",
        "group": "gps-ops",
        "lat": -55.7127933167188,
        "lon": -34.88855415291668,
        "alt_km": 20327.881498302188,
        "timestamp": "2025-12-07T20:38:14.322925+00:00",
        "meta_object_name": "GPS BIIF-8  (PRN 03)",
        "meta_object_id": "2014-068A",
        "meta_epoch": "2025-12-05T23:27:53.798400",
        "meta_mean_motion": 2.00564264,
        "meta_eccentricity": 0.00608121,
        "meta_inclination": 56.8528,
        "meta_ra_of_asc_node": 38.4077,
        "meta_arg_of_pericenter": 69.3337,
        "meta_mean_anomaly": 291.3749,
        "meta_ephemeris_type": 0,
        "meta_classification_type": "U",
        "meta_norad_cat_id": 40294,
        "meta_element_set_no": 999,
        "meta_rev_at_epoch": 8133,
        "meta_bstar": 0,
        "meta_mean_motion_dot": -6.8e-07,
        "meta_mean_motion_ddot": 0,
        "tle_line1": "1 40294U 14068A   25339.97770600 -.00000068  00000+0  00000+0 0  9999",
        "tle_line2": "2 40294  56.8528  38.4077 0060812  69.3337 291.3749  2.00564264 81331"
      },
      "geometry": {
        "type": "Point",
        "coordinates": [
          -34.88855415291668,
          -55.7127933167188
        ]
      }
    },
    {
      "type": "Feature",
      "properties": {
        "norad_id": 40534,
        "name": "GPS BIIF-9  (PRN 26)",
        "group": "gps-ops",
        "lat": -5.28474473427851,
        "lon": 36.073372296486795,
        "alt_km": 20423.743515377384,
        "timestamp": "2025-12-07T20:38:14.322936+00:00",
        "meta_object_name": "GPS BIIF-9  (PRN 26)",
        "meta_object_id": "2015-013A",
        "meta_epoch": "2025-12-06T14:33:06.415200",
        "meta_mean_motion": 2.0056283,
        "meta_eccentricity": 0.010678,
        "meta_inclination": 53.1987,
        "meta_ra_of_asc_node": 212.1443,
        "meta_arg_of_pericenter": 38.3324,
        "meta_mean_anomaly": 322.5165,
        "meta_ephemeris_type": 0,
        "meta_classification_type": "U",
        "meta_norad_cat_id": 40534,
        "meta_element_set_no": 999,
        "meta_rev_at_epoch": 7796,
        "meta_bstar": 0,
        "meta_mean_motion_dot": 4.8e-07,
        "meta_mean_motion_ddot": 0,
        "tle_line1": "1 40534U 15013A   25340.60632425  .00000048  00000+0  00000+0 0  9998",
        "tle_line2": "2 40534  53.1987 212.1443 0106780  38.3324 322.5165  2.00562830 77962"
      },
      "geometry": {
        "type": "Point",
        "coordinates": [
          36.073372296486795,
          -5.28474473427851
        ]
      }
    }
  ]
}